NORAD_CAT_ID,OBJECT_NAME,OBJECT_TYPE,EPOCH,MEAN_MOTION,ECCENTRICITY,INCLINATION,RA_OF_ASC_NODE,ARG_OF_PERICENTER,MEAN_ANOMALY,BSTAR,MEAN_MOTION_DOT,MEAN_MOTION_DDOT,TLE_LINE0,TLE_LINE1,TLE_LINE2,SEMIMAJOR_AXIS,PERIOD,APOGEE,PERIGEE,DECAYED
51981.0,STARLINK-3635,PAYLOAD,2022-11-11 02:29:10,15.08824694,0.0001956,53.215,91.601,46.5288,313.5867,-8.719e-05,-1.675e-05,0.0,0 STARLINK-3635,1 51981U 22025AB  22315.10359903 -.00001675  00000-0 -87190-4 0  9998,2 51981  53.2150  91.6010 0001956  46.5288 313.5867 15.08824694 38790,6917.927,95.439,541.145,538.439,0.0
51981.0,STARLINK-3635,PAYLOAD,2022-11-11 12:01:29,15.08832364,0.0001889,53.2149,89.8171,43.5692,316.5449,0.00019254,2.777e-05,0.0,0 STARLINK-3635,1 51981U 22025AB  22315.50104127  .00002777  00000-0  19254-3 0  9995,2 51981  53.2149  89.8171 0001889  43.5692 316.5449 15.08832364 37753,6917.904,95.438,541.076,538.462,0.0
51981.0,STARLINK-3635,PAYLOAD,2022-11-11 16:47:39,15.08839379,0.0001951,53.215,88.9252,43.6118,316.5029,0.00047161,7.225e-05,0.0,0 STARLINK-3635,1 51981U 22025AB  22315.69976170  .00007225  00000-0  47161-3 0  9991,2 51981  53.2150  88.9252 0001951  43.6118 316.5029 15.08839379 38881,6917.882,95.438,541.097,538.398,0.0
51981.0,STARLINK-3635,PAYLOAD,2022-11-11 18:23:02,15.08839415,0.000192,53.2151,88.62799999999999,43.0342,317.08,0.00069869,0.00010849,0.0,0 STARLINK-3635,1 51981U 22025AB  22315.76600245  .00010849  00000-0  69869-3 0  9991,2 51981  53.2151  88.6280 0001920  43.0342 317.0800 15.08839415 37792,6917.882,95.438,541.075,538.419,0.0
51981.0,STARLINK-3635,PAYLOAD,2022-11-12 02:19:58,15.08828508,0.0001977,53.2153,87.1412,39.9274,320.1863,0.00027454,4.083e-05,0.0,0 STARLINK-3635,1 51981U 22025AB  22316.09720714  .00004083  00000-0  27454-3 0  9999,2 51981  53.2153  87.1412 0001977  39.9274 320.1863 15.08828508 38948,6917.916,95.438,541.148,538.413,0.0
51981.0,STARLINK-3635,PAYLOAD,2022-11-12 15:03:03,15.08841141,0.0002066,53.2147,84.7625,41.5144,318.6004,0.00050659,7.784e-05,0.0,0 STARLINK-3635,1 51981U 22025AB  22316.62712816  .00007784  00000-0  50659-3 0  9996,2 51981  53.2147  84.7625 0002066  41.5144 318.6004 15.08841141 37929,6917.877,95.437,541.1709999999998,538.313,0.0
51981.0,STARLINK-3635,PAYLOAD,2022-11-13 11:43:04,15.08845637,0.0002073,53.214,80.8965,39.9537,320.1607,0.0003337,5.028e-05,0.0,0 STARLINK-3635,1 51981U 22025AB  22317.48824665  .00005028  00000-0  33370-3 0  9997,2 51981  53.2140  80.8965 0002073  39.9537 320.1607 15.08845637 38057,6917.863,95.437,541.1619999999998,538.294,0.0
51981.0,STARLINK-3635,PAYLOAD,2022-11-13 18:04:37,15.08836062,0.0002052,53.2165,79.7081,39.3137,320.8004,8.0481e-05,9.93e-06,0.0,0 STARLINK-3635,1 51981U 22025AB  22317.75321061  .00000993  00000-0  80481-4 0  9991,2 51981  53.2165  79.7081 0002052  39.3137 320.8004 15.08836062 39193,6917.892,95.438,541.177,538.3380000000002,0.0
51981.0,STARLINK-3635,PAYLOAD,2022-11-14 11:33:52,15.08836518,0.0002166,53.2169,76.4381,39.5852,320.5298,6.1566e-05,6.92e-06,0.0,0 STARLINK-3635,1 51981U 22025AB  22318.48185321  .00000692  00000-0  61566-4 0  9998,2 51981  53.2169  76.4381 0002166  39.5852 320.5298 15.08836518 38205,6917.891,95.438,541.254,538.258,0.0
51981.0,STARLINK-3635,PAYLOAD,2022-11-14 17:55:24,15.08837456,0.0002042,53.2177,75.2478,39.19300000000001,320.921,3.1691e-05,2.16e-06,0.0,0 STARLINK-3635,1 51981U 22025AB  22318.74681375  .00000216  00000-0  31691-4 0  9995,2 51981  53.2177  75.2478 0002042  39.1930 320.9210 15.08837456 38248,6917.888000000001,95.438,541.1659999999998,538.341,0.0
51981.0,STARLINK-3635,PAYLOAD,2022-11-14 19:30:47,15.08838742,0.000206,53.2172,74.9502,37.4354,322.6781,-2.5546e-05,-6.95e-06,0.0,0 STARLINK-3635,1 51981U 22025AB  22318.81305333 -.00000695  00000-0 -25546-4 0  9995,2 51981  53.2172  74.9502 0002060  37.4354 322.6781 15.08838742 39352,6917.884,95.438,541.174,538.3240000000002,0.0
51981.0,STARLINK-3635,PAYLOAD,2022-11-15 13:00:02,15.08836874,0.000203,53.2169,71.6792,38.2118,321.9018,2.7791e-05,1.54e-06,0.0,0 STARLINK-3635,1 51981U 22025AB  22319.54169427  .00000154  00000-0  27791-4 0  9990,2 51981  53.2169  71.6792 0002030  38.2118 321.9018 15.08836874 38366,6917.89,95.438,541.159,538.351,0.0
51981.0,STARLINK-3635,PAYLOAD,2022-11-15 17:46:11,15.08838972,0.0002127,53.217,70.78699999999998,31.1998,328.912,3.8091e-05,3.18e-06,0.0,0 STARLINK-3635,1 51981U 22025AB  22319.74041317  .00000318  00000-0  38091-4 0  9996,2 51981  53.2170  70.7870 0002127  31.1998 328.9120 15.08838972 38395,6917.884,95.438,541.22,538.2769999999998,0.0
51981.0,STARLINK-3635,PAYLOAD,2022-11-16 08:04:39,15.08846273,0.0002337,53.2173,68.1104,28.1666,331.9452,0.00013927,1.929e-05,0.0,0 STARLINK-3635,1 51981U 22025AB  22320.33656694  .00001929  00000-0  13927-3 0  9992,2 51981  53.2173  68.1104 0002337  28.1666 331.9452 15.08846273 39587,6917.861,95.437,541.3430000000002,538.11,0.0
51981.0,STARLINK-3635,PAYLOAD,2022-11-16 14:26:12,15.08841907,0.0002205,53.2173,66.9211,32.9167,327.1962,0.00016159,2.285e-05,0.0,0 STARLINK-3635,1 51981U 22025AB  22320.60152877  .00002285  00000-0  16159-3 0  9992,2 51981  53.2173  66.9211 0002205  32.9167 327.1962 15.08841907 38520,6917.875,95.437,541.265,538.214,0.0
51981.0,STARLINK-3635,PAYLOAD,2022-11-16 17:36:58,15.0884422,0.000235,53.2173,66.3265,29.0059,331.1064,9.7372e-05,1.262e-05,0.0,0 STARLINK-3635,1 51981U 22025AB  22320.73400893  .00001262  00000-0  97372-4 0  9991,2 51981  53.2173  66.3265 0002350  29.0059 331.1064 15.08844220 38542,6917.8669999999975,95.437,541.3580000000002,538.107,0.0
51981.0,STARLINK-3635,PAYLOAD,2022-11-17 09:30:50,15.08834665,0.0002091,53.2187,63.3546,39.6395,320.475,6.7307e-05,7.83e-06,0.0,0 STARLINK-3635,1 51981U 22025AB  22321.39641543  .00000783  00000-0  67307-4 0  9995,2 51981  53.2187  63.3546 0002091  39.6395 320.4750 15.08834665 39746,6917.897,95.438,541.2080000000002,538.315,0.0
51981.0,STARLINK-3635,PAYLOAD,2022-11-17 11:06:13,15.08834183,0.0002096,53.2186,63.0571,39.3083,320.8061,5.9597e-05,6.6e-06,0.0,0 STARLINK-3635,1 51981U 22025AB  22321.46265590  .00000660  00000-0  59597-4 0  9993,2 51981  53.2186  63.0571 0002096  39.3083 320.8061 15.08834183 38659,6917.898,95.438,541.2130000000002,538.313,0.0
51981.0,STARLINK-3635,PAYLOAD,2022-11-18 23:40:06,15.08832069,0.0002177,53.2172,56.2162,34.719,325.3944,-4.2458e-05,-9.64e-06,0.0,0 STARLINK-3635,1 51981U 22025AB  22322.98618328 -.00000964  00000-0 -42458-4 0  9999,2 51981  53.2172  56.2162 0002177  34.7190 325.3944 15.08832069 39980,6917.905,95.438,541.276,538.264,0.0
51981.0,STARLINK-3635,PAYLOAD,2022-11-19 09:12:24,15.08828345,0.0002151,53.2171,54.4313,32.7973,327.3152,0.00020208,2.928e-05,0.0,0 STARLINK-3635,1 51981U 22025AB  22323.38362128  .00002928  00000-0  20208-3 0  9996,2 51981  53.2171  54.4313 0002151  32.7973 327.3152 15.08828345 38946,6917.916,95.438,541.269,538.293,0.0
51981.0,STARLINK-3635,PAYLOAD,2022-11-20 01:06:15,15.08846819,0.0002149,53.2173,51.4581,32.0549,328.0574,0.00017207,2.452e-05,0.0,0 STARLINK-3635,1 51981U 22025AB  22324.04600873  .00002452  00000-0  17207-3 0  9999,2 51981  53.2173  51.4581 0002149  32.0549 328.0574 15.08846819 40148,6917.86,95.437,541.211,538.238,0.0
51981.0,STARLINK-3635,PAYLOAD,2022-11-20 10:38:34,15.08839415,0.0002103,53.2174,49.6741,31.4338,328.67800000000005,0.0002091,3.041e-05,0.0,0 STARLINK-3635,1 51981U 22025AB  22324.44345508  .00003041  00000-0  20910-3 0  9994,2 51981  53.2174  49.6741 0002103  31.4338 328.6780 15.08839415 40201,6917.882,95.438,541.202,538.2919999999998,0.0
51981.0,STARLINK-3635,PAYLOAD,2022-11-20 12:13:57,15.08840605,0.0002134,53.2174,49.3768,31.7422,328.3699,0.00022401,3.279e-05,0.0,0 STARLINK-3635,1 51981U 22025AB  22324.50969465  .00003279  00000-0  22401-3 0  9995,2 51981  53.2174  49.3768 0002134  31.7422 328.3699 15.08840605 39115,6917.879,95.438,541.22,538.2669999999998,0.0
51981.0,STARLINK-3635,PAYLOAD,2022-11-20 20:10:53,15.08846568,0.0002198,53.2167,47.8898,31.8059,328.3065,0.00029622,4.429999999999999e-05,0.0,0 STARLINK-3635,1 51981U 22025AB  22324.84089566  .00004430  00000-0  29622-3 0  9999,2 51981  53.2167  47.8898 0002198  31.8059 328.3065 15.08846568 39167,6917.86,95.437,541.246,538.205,0.0
51981.0,STARLINK-3635,PAYLOAD,2022-11-21 10:29:22,15.0883313,0.0002389,53.217,45.2146,29.9738,330.1391,-5.753600000000001e-05,-1.204e-05,0.0,0 STARLINK-3635,1 51981U 22025AB  22325.43706208 -.00001204  00000-0 -57536-4 0  9998,2 51981  53.2170  45.2146 0002389  29.9738 330.1391 15.08833130 40350,6917.901,95.438,541.419,538.114,0.0
51981.0,STARLINK-3635,PAYLOAD,2022-11-21 12:04:45,15.08835388,0.000231,53.2168,44.9166,33.0125,327.1011,-4.7806e-05,-1.049e-05,0.0,0 STARLINK-3635,1 51981U 22025AB  22325.50330111 -.00001049  00000-0 -47806-4 0  9998,2 51981  53.2168  44.9166 0002310  33.0125 327.1011 15.08835388 39265,6917.894,95.438,541.3580000000002,538.161,0.0
51981.0,STARLINK-3635,PAYLOAD,2022-11-21 20:01:40,15.08841628,0.0002287,53.2174,43.4299,31.5472,328.5657,1.5879e-05,-3.6e-07,0.0,0 STARLINK-3635,1 51981U 22025AB  22325.83449943 -.00000036  00000-0  15879-4 0  9997,2 51981  53.2174  43.4299 0002287  31.5472 328.5657 15.08841628 39315,6917.875,95.437,541.323,538.158,0.0
51981.0,STARLINK-3635,PAYLOAD,2022-11-22 00:47:49,15.08844555,0.0002321,53.2174,42.5378,31.4983,328.6148,1.7599000000000002e-05,-8e-08,0.0,0 STARLINK-3635,1 51981U 22025AB  22326.03321678 -.00000008  00000-0  17599-4 0  9994,2 51981  53.2174  42.5378 0002321  31.4983 328.6148 15.08844555 40442,6917.866,95.437,541.337,538.126,0.0
51981.0,STARLINK-3635,PAYLOAD,2022-11-22 11:55:29,15.08881198,0.0002405,53.2175,40.4559,33.9052,326.2093,0.00038462,5.845e-05,0.0,0 STARLINK-3635,1 51981U 22025AB  22326.49686357  .00005845  00000-0  38462-3 0  9996,2 51981  53.2175  40.4559 0002405  33.9052 326.2093 15.08881198 39410,6917.754,95.435,541.283,537.956,0.0
